     3.02           N: GNSS NAV DATA    G: GPS              RINEX VERSION / TYPE
GNSS-SDR            suhjw               20250728 080748 UTC PGM / RUN BY / DATE 
GPS NAVIGATION MESSAGE FILE GENERATED BY GNSS-SDR           COMMENT             
GNSS-SDR VERSION 0.0.20                                     COMMENT             
See https://gnss-sdr.org                                    COMMENT             
GPSA    .0000D+00   .0000D+00   .0000D+00   .0000D+00       IONOSPHERIC CORR    
GPSB    .0000D+00   .0000D+00   .0000D+00   .0000D+00       IONOSPHERIC CORR    
GPUT   .0000000000D+00  .000000000D+00      0 2377          TIME SYSTEM CORR    
     0     0     0     0                                    LEAP SECONDS        
                                                            END OF HEADER       
G10 2025 07 28 10 00 00 -.492338091135D-03 -.943600753089D-11  .000000000000D+00
      .340000000000D+02  .519687500000D+02  .404266839337D-08 -.129312438853D+01
      .263378024101D-05  .102879630867D-01  .467710196972D-05  .515364584351D+04
      .122400000000D+06  .309199094772D-06  .171843724801D+01  .298023223877D-07
      .989836258768D+00  .306343750000D+03 -.231857281174D+01 -.799283293357D-08
      .138577200868D-09  .100000000000D+01  .237700000000D+04  .100000000000D+01
      .000000000000D+00  .000000000000D+00  .232830643654D-08  .340000000000D+02
      .115686000000D+06  .000000000000D+00                                      
G12 2025 07 28 10 00 00 -.593887642026D-03 -.125055521494D-11  .000000000000D+00
      .430000000000D+02  .420312500000D+02  .500663711796D-08 -.565606641844D+00
      .212714076042D-05  .869803619571D-02  .589527189732D-05  .515364976501D+04
      .122400000000D+06 -.670552253723D-07 -.136135205846D+01  .102445483208D-06
      .959551458267D+00  .273812500000D+03  .151555122680D+01 -.844999483335D-08
      .401802450971D-09  .100000000000D+01  .237700000000D+04  .100000000000D+01
      .000000000000D+00  .000000000000D+00 -.125728547573D-07  .430000000000D+02
      .115686000000D+06  .000000000000D+00                                      
G15 2025 07 28 10 00 00  .322041101754D-03  .397903932026D-11  .000000000000D+00
      .180000000000D+02 -.793125000000D+02  .502199490053D-08  .196407604214D+01
     -.444985926151D-05  .165511131054D-01  .376254320145D-05  .515361625481D+04
      .122400000000D+06  .217929482460D-06  .259353022944D+01 -.318512320518D-06
      .940166914503D+00  .295312500000D+03  .143983713650D+01 -.839106380720D-08
     -.267868300647D-09  .100000000000D+01  .237700000000D+04  .100000000000D+01
      .000000000000D+00  .000000000000D+00 -.102445483208D-07  .180000000000D+02
      .115686000000D+06  .000000000000D+00                                      
G22 2025 07 28 10 00 00 -.992957502604D-04  .125055521494D-11  .000000000000D+00
      .230000000000D+02  .430625000000D+02  .481412909923D-08 -.276551953346D+01
      .235624611378D-05  .130409452831D-01  .538863241673D-05  .515364616776D+04
      .122400000000D+06 -.130385160446D-07 -.134072634721D+01  .214204192162D-06
      .958205085019D+00  .269093750000D+03 -.105493206833D+01 -.805890711440D-08
      .405016870578D-09  .100000000000D+01  .237700000000D+04  .100000000000D+01
      .000000000000D+00  .000000000000D+00 -.111758708954D-07  .230000000000D+02
      .115686000000D+06  .000000000000D+00                                      
G23 2025 07 28 10 00 00  .517886132002D-03  .613908923697D-11  .000000000000D+00
      .203000000000D+03  .539062500000D+02  .424089093584D-08 -.106015530030D+00
      .260770320892D-05  .544403365348D-02  .432506203651D-05  .515365989494D+04
      .122400000000D+06  .987201929092D-07  .168737443403D+01  .447034835815D-07
      .984898744940D+00  .308906250000D+03 -.284732352497D+01 -.821569935971D-08
      .125719522437D-09  .100000000000D+01  .237700000000D+04  .100000000000D+01
      .000000000000D+00  .000000000000D+00 -.838190317154D-08  .715000000000D+03
      .115686000000D+06  .000000000000D+00                                      
G24 2025 07 28 10 00 00 -.346383079886D-03  .989075488178D-11  .000000000000D+00
      .100000000000D+03 -.292187500000D+02  .488413201513D-08  .111942013636D+01
     -.156648457050D-05  .170216932893D-01  .116154551506D-04  .515367653847D+04
      .122400000000D+06 -.264495611191D-06 -.258305786307D+01  .372529029846D-07
      .934693944863D+00  .145500000000D+03  .107600601915D+01 -.841213611352D-08
      .000000000000D+00  .100000000000D+01  .237700000000D+04  .100000000000D+01
      .000000000000D+00  .000000000000D+00  .232830643654D-08  .100000000000D+03
      .115686000000D+06  .000000000000D+00                                      
G25 2025 07 28 10 00 00  .478732865304D-03 -.159161572810D-11  .000000000000D+00
      .440000000000D+02  .490312500000D+02  .526914805259D-08 -.609452808510D+00
      .276602804661D-05  .123012970435D-01  .613741576672D-05  .515359334564D+04
      .122400000000D+06 -.130385160446D-07 -.145278735694D+01  .195577740669D-06
      .947767954500D+00  .261250000000D+03  .112634732850D+01 -.863928843247D-08
      .446447167745D-09  .100000000000D+01  .237700000000D+04  .100000000000D+01
      .000000000000D+00  .000000000000D+00  .558793544769D-08  .440000000000D+02
      .115686000000D+06  .000000000000D+00                                      
